ENSO
1 58470U 23185J   25260.84302297  .00133003  00000-0  10580-2 0  9999
2 58470  97.3623 340.0248 0003083  89.2047 270.9569 15.70803905100682
METEOR M2-4
1 59051U 24039A   25262.64417422  .00000021  00000-0  29016-4 0  9990
2 59051  98.6602 220.9344 0006102 227.5795 132.4867 14.22380686 80800
ZORKIY-2M 2
1 59064U 24039P   25262.63406993  .00067767  00000-0  63765-3 0  9992
2 59064  97.4292 240.1074 0007011  30.2577 329.9087 15.66876853 87536
PARS-1
1 59065U 24039Q   25262.63483341  .00010172  00000-0  27101-3 0  9997
2 59065  97.4506 232.0082 0011700  23.9993 336.1795 15.38308020 86940
SITRO-AIS-25
1 59066U 24039R   25262.63675760  .00008169  00000-0  68041-3 0  9997
2 59066  95.3862  49.5316 0153177 191.5001 168.2710 14.90006995 84381
SITRO-AIS-26
1 59067U 24039S   25262.67286487  .00007205  00000-0  60254-3 0  9994
2 59067  95.3858  49.5014 0153436 191.7422 168.0209 14.89850648 84380
SITRO-AIS-27
1 59068U 24039T   25262.64523652  .00007388  00000-0  61352-3 0  9992
2 59068  95.3863  49.6426 0152636 190.9659 168.8227 14.90194427 84396
SITRO-AIS-28
1 59071U 24039U   25262.62957942  .00008837  00000-0  73268-3 0  9996
2 59071  95.3862  49.6640 0152493 190.8912 168.8999 14.90234438 84392
SONATE-2
1 59112U 24043Q   25262.62291564  .00020256  00000-0  52065-3 0  9999
2 59112  97.5255  36.1583 0010978 109.7736 250.4694 15.39255892 86011
HORS-1
1 57188U 23091Y   25262.57767051  .00008421  00000-0  38824-3 0  9992
2 57188  97.5496 320.2134 0009074 328.2283  31.8403 15.20479961123104
HORS-2
1 57196U 23091AG  25262.56653547  .00010054  00000-0  42461-3 0  9991
2 57196  97.5511 321.9053 0008385 324.6649  35.4030 15.23432050123207
ZORKIY-2M 6
1 59774U 24092B   25262.59370801  .00008824  00000-0  39342-3 0  9995
2 59774  97.6233  21.2023 0010980  54.1633 306.0621 15.21603371 74282
ZORKIY-2M 4
1 59775U 24092C   25262.61632245  .00009968  00000-0  43790-3 0  9994
2 59775  97.6367  22.3172 0010998  56.9065 303.3225 15.22073072 74310
SITRO-AIS-53
1 59776U 24092D   25262.29225481  .00013826  00000-0  55719-3 0  9991
2 59776  97.6308  22.1265 0009283  32.2914 327.8890 15.24922661 74297
SITRO-AIS-54
1 59777U 24092E   25261.90014422  .00013715  00000-0  55361-3 0  9990
2 59777  97.6305  21.7156 0009540  33.8088 326.3756 15.24868599 74232
SITRO-AIS-56
1 59778U 24092F   25262.30343677  .00013864  00000-0  55316-3 0  9998
2 59778  97.6303  22.2290 0009645  33.0578 327.1260 15.25255430 74300
RASSVET 1-4
1 59779U 24092G   25262.63603325  .00000185  00000-0  86106-4 0  9998
2 59779  98.6459  17.4125 0010828 285.1678  74.8307 14.31661326 70184
RASSVET 1-5
1 59780U 24092H   25262.63586516  .00000185  00000-0  86148-4 0  9998
2 59780  98.6458  17.4079 0011197 286.6471  73.3483 14.31661363 70180
RASSVET 1-6
1 59781U 24092J   25262.63457078  .00000176  00000-0  82742-4 0  9995
2 59781  98.6458  17.4108 0011095 286.9402  73.0564 14.31661846 70181
SITRO-AIS-55
1 59809U 24092K   25261.79865475  .00013901  00000-0  56262-3 0  9993
2 59809  97.6302  21.5078 0009783  34.5053 325.6818 15.24773641 73711
MESAT-1
1 60209U 24125G   25262.54212267  .00021573  00000-0  54223-3 0  9994
2 60209  97.2667 113.2046 0018503 126.9475 233.3469 15.39804320 67620
ISTSAT-1
1 60238U 24128D   25262.63231462  .00007319  00000-0  48918-3 0  9993
2 60238  61.9889  79.4943 0054943  79.0173 281.7094 15.06591431 65625
IONOSFERA-M 01
1 61735U 24199A   25262.57407608  .00000035  00000-0  35547-4 0  9997
2 61735  98.7524 133.0275 0001064 139.0223 221.1034 14.22686538 89220
IONOSFERA-M 02
1 61736U 24199B   25262.60883646  .00000038  00000-0  36551-4 0  9991
2 61736  98.7523 132.9755 0001736  58.0819 302.0528 14.22688216 92358
SITRO-AIS-16
1 61737U 24199C   25262.58949043  .00002741  00000-0  25247-3 0  9995
2 61737  97.3459 113.7660 0005397 257.8483 102.2135 14.95468551 91347
SITRO-AIS-15
1 61738U 24199D   25262.57815170  .00002345  00000-0  21642-3 0  9993
2 61738  97.3460 113.7818 0005235 259.7550 100.3082 14.95506931 91347
SITRO-AIS-21
1 61739U 24199E   25262.58562159  .00001768  00000-0  17156-3 0  9994
2 61739  97.3467 113.0370 0011535 251.9651 108.0314 14.93774515 91332
SITRO-AIS-22
1 61740U 24199F   25262.57421723  .00002128  00000-0  20477-3 0  9997
2 61740  97.3465 113.0613 0011574 253.4056 106.5895 14.93902898 91481
SITRO-AIS-24
1 61741U 24199G   25262.58234169  .00002811  00000-0  26938-3 0  9992
2 61741  97.3465 113.0551 0011455 254.9734 105.0219 14.93844648 91459
SITRO-AIS-23
1 61742U 24199H   25262.56659467  .00001957  00000-0  18863-3 0  9991
2 61742  97.3468 113.0721 0011337 254.5428 105.4541 14.93930745 91330
SITRO-AIS-13
1 61743U 24199J   25262.54330651  .00003275  00000-0  29879-3 0  9995
2 61743  97.3466 113.8232 0004611 259.8795 100.1907 14.95713662 91502
CSTP-2.11
1 61744U 24199K   25262.57400860  .00016712  00000-0  47159-3 0  9990
2 61744  97.3396 131.0167 0011680 166.9419 193.2130 15.36392870 92602
POLYTECH UNIVERSE-5 (RS70S)
1 61745U 24199L   25262.60578676  .00020617  00000-0  54018-3 0  9997
2 61745  97.3371 131.4664 0009132 169.1296 191.0149 15.38678955 95780
COLIBRI-S (RS67S)
1 61746U 24199M   25262.58135055  .00014152  00000-0  41743-3 0  9993
2 61746  97.3399 130.7036 0011535 168.4955 191.6554 15.35042624 95725
POLYTECH UNIVERSE-4 (RS71S)
1 61747U 24199N   25262.59041065  .00013124  00000-0  39560-3 0  9994
2 61747  97.3401 130.5388 0011818 167.3857 192.7684 15.34370916 95713
SITRO-AIS-44
1 61748U 24199P   25262.60381800  .00022884  00000-0  57553-3 0  9996
2 61748  97.3359 131.7492 0008845 167.7096 192.4368 15.39915593 95807
VIZARD-ION (RS68S)
1 61749U 24199Q   25262.60417847  .00017623  00000-0  48273-3 0  9992
2 61749  97.3400 131.2843 0011137 165.1674 194.9900 15.37315018 95760
MTUSI-1
1 61750U 24199R   25262.63017194  .00012338  00000-0  34256-3 0  9992
2 61750  97.3370 130.9785 0010947 175.0747 185.0608 15.36977993 95758
VLADIVOSTOK-1
1 61751U 24199S   25262.56752653  .00008149  00000-0  27745-3 0  9991
2 61751  97.3389 129.4355 0010978 186.6386 173.4711 15.30611720 95658
SITRO-AIS-14
1 61752U 24199T   25262.56791152  .00001978  00000-0  18305-3 0  9994
2 61752  97.3464 113.7940 0005018 261.2502  98.8152 14.95558703 94646
HORS-3 (RS81S)
1 61753U 24199U   25262.59139968  .00017465  00000-0  48156-3 0  9994
2 61753  97.3370 131.0182 0009693 173.4657 186.6716 15.37127227 95757
HORS-4 (RS82S)
1 61754U 24199V   25262.60188649  .00021130  00000-0  56215-3 0  9996
2 61754  97.3361 131.2929 0010008 172.0923 188.0482 15.38192902 95773
SITRO-AIS-43
1 61755U 24199W   25262.59110815  .00023259  00000-0  58322-3 0  9990
2 61755  97.3359 131.7662 0008814 167.0928 193.0545 15.40003215 95802
SITRO-AIS-42
1 61756U 24199X   25262.58432274  .00022297  00000-0  55792-3 0  9995
2 61756  97.3360 131.7784 0008872 166.5484 193.6000 15.40075166 95801
HORIZON (RS59S)
1 61757U 24199Y   25262.58661266  .00030770  00000-0  69286-3 0  9999
2 61757  97.3378 132.4760 0010305 156.9299 203.2413 15.43179652 95842
SITRO-AIS-20
1 61758U 24199Z   25262.59497927  .00002899  00000-0  26461-3 0  9991
2 61758  97.3457 113.8964 0004668 261.3847  98.6847 14.95781170 94650
SITRO-AIS-19
1 61759U 24199AA  25262.59481591  .00002971  00000-0  27113-3 0  9998
2 61759  97.3457 113.8983 0004608 263.6023  96.4674 14.95767025 94654
SITRO-AIS-41
1 61760U 24199AB  25262.62879506  .00022445  00000-0  56858-3 0  9997
2 61760  97.3365 131.7324 0008927 167.2114 192.9360 15.39697643 95809
2024-199AC
1 61761U 24199AC  25262.60360240  .00018241  00000-0  49136-3 0  9996
2 61761  97.3360 131.2945 0008768 169.4102 190.7329 15.37851116 95775
ARCTICSAT-1 (RS74S)
1 61762U 24199AD  25262.59611525  .00029650  00000-0  67978-3 0  9990
2 61762  97.3377 132.4577 0010446 156.6795 203.4929 15.42645956 95845
SIT-HSE
1 61763U 24199AE  25262.59985363  .00014305  00000-0  37968-3 0  9992
2 61763  97.3373 131.6207 0008008 178.3349 181.7924 15.38368962 95791
SIT-2086
1 61764U 24199AF  25262.56742972  .00014441  00000-0  38317-3 0  9997
2 61764  97.3370 131.6599 0008516 167.5637 192.5820 15.38372274 92633
MORDOVIA-IOT (RS50S)
1 61765U 24199AG  25262.57745880  .00049210  00000-0  88900-3 0  9995
2 61765  97.3344 133.7951 0009508 148.2085 211.9742 15.49519497 92782
RUZAEVKA-390 (RS44S)
1 61766U 24199AH  25262.57803694  .00041073  00000-0  80810-3 0  9995
2 61766  97.3344 133.3358 0009717 149.5400 210.6416 15.47100409 92755
2024-199AJ (? AHMAT-2)
1 61767U 24199AJ  25262.60831724  .00063063  00000-0  99396-3 0  9997
2 61767  97.3306 134.4664 0009250 139.1210 221.0739 15.53301842 92836
HOD-HOD
1 61768U 24199AK  25262.58393807  .00015529  00000-0  43971-3 0  9992
2 61768  97.3375 131.0602 0007349 174.4765 185.6562 15.36344574 92606
KOSAR
1 61769U 24199AL  25262.59329955  .00017068  00000-0  46683-3 0  9990
2 61769  97.3371 131.3313 0007171 174.0888 186.0442 15.37404752 92620
SITRO-AIS-48
1 61771U 24199AN  25262.61656468  .00019127  00000-0  52753-3 0  9991
2 61771  97.3344 130.7320 0011343 185.0490 175.0642 15.37082269 92592
HYPERVIEW-1G (RS66S)
1 61772U 24199AP  25262.60139670  .00025458  00000-0  64084-3 0  9996
2 61772  97.3361 131.4460 0012348 175.8564 184.2787 15.39827345 92631
SITRO-AIS-47
1 61773U 24199AQ  25262.59725529  .00019625  00000-0  53769-3 0  9996
2 61773  97.3346 130.7648 0011212 185.3996 174.7130 15.37284748 92592
SITRO-AIS-46
1 61774U 24199AR  25262.61564772  .00020583  00000-0  55635-3 0  9990
2 61774  97.3339 130.8766 0011281 185.6203 174.4918 15.37693637 92601
CSTP-2.2
1 61775U 24199AS  25262.59098931  .00012160  00000-0  36557-3 0  9991
2 61775  97.3384 130.0070 0018781 169.8158 190.3469 15.34368230 92532
SITRO-AIS-40
1 61776U 24199AT  25262.61738414  .00020534  00000-0  55462-3 0  9992
2 61776  97.3339 130.8782 0011350 185.5404 174.5718 15.37716952 95754
CSTP-2.1
1 61777U 24199AU  25262.59010277  .00012230  00000-0  36739-3 0  9990
2 61777  97.3383 130.0013 0017815 170.0591 190.1008 15.34408922 92532
